{
"type": "FeatureCollection",
"name": "historical_hotspots",
"crs": { "type": "name", "properties": { "name": "urn:ogc:def:crs:OGC:1.3:CRS84" } },
"features": [
{ "type": "Feature", "properties": { "id": 1, "location": "Kolonnawa", "district": "Colombo", "severity": "High", "context": "Lower Kelani floodplain urban locality", "source": "Survey Department Kelani River Basin Flood Impact Analysis (2025)", "coord_basi": "Named exposed urban centre; representative town-centre point", "ev_grade": "A", "point_type": "Representative locality point", "exact_coor": "No" }, "geometry": { "type": "Point", "coordinates": [ 79.8908, 6.9333 ] } },
{ "type": "Feature", "properties": { "id": 2, "location": "Kaduwela", "district": "Colombo", "severity": "High", "context": "Lower Kelani floodplain urban locality", "source": "Survey Department Kelani River Basin Flood Impact Analysis (2025)", "coord_basi": "Named exposed urban centre; representative town-centre point", "ev_grade": "A", "point_type": "Representative locality point", "exact_coor": "No" }, "geometry": { "type": "Point", "coordinates": [ 79.9842, 6.9305 ] } },
{ "type": "Feature", "properties": { "id": 3, "location": "Homagama", "district": "Colombo", "severity": "Moderate", "context": "Kelani basin exposure locality", "source": "Survey Department Kelani River Basin Flood Impact Analysis (2025)", "coord_basi": "Named exposed DSD/locality; representative centre point", "ev_grade": "A", "point_type": "Representative locality point", "exact_coor": "No" }, "geometry": { "type": "Point", "coordinates": [ 80.0031, 6.8412 ] } },
{ "type": "Feature", "properties": { "id": 4, "location": "Colombo City", "district": "Colombo", "severity": "High", "context": "Urban flood exposure", "source": "Survey Department Kelani River Basin Flood Impact Analysis (2025)", "coord_basi": "Named exposed urban centre; representative city-centre point", "ev_grade": "A", "point_type": "Representative locality point", "exact_coor": "No" }, "geometry": { "type": "Point", "coordinates": [ 79.8612, 6.9271 ] } },
{ "type": "Feature", "properties": { "id": 5, "location": "Peliyagoda", "district": "Gampaha", "severity": "High", "context": "Lower Kelani floodplain urban locality", "source": "DMC Flood Hazard Map: Kelani & Attanagalu Oya basins; Survey Dept. flood mapping", "coord_basi": "Representative urban-centre point within mapped flood-prone lower Kelani area", "ev_grade": "A", "point_type": "Representative locality point", "exact_coor": "No" }, "geometry": { "type": "Point", "coordinates": [ 79.8838, 6.9602 ] } },
{ "type": "Feature", "properties": { "id": 6, "location": "Kelaniya", "district": "Gampaha", "severity": "High", "context": "Lower Kelani floodplain urban locality", "source": "Survey Department Flood Map 2016 - Kelaniya Area; DMC Flood Hazard Map", "coord_basi": "Representative town-centre point within mapped flood-prone area", "ev_grade": "A", "point_type": "Representative locality point", "exact_coor": "No" }, "geometry": { "type": "Point", "coordinates": [ 79.9217, 6.9553 ] } },
{ "type": "Feature", "properties": { "id": 7, "location": "Biyagama", "district": "Gampaha", "severity": "High", "context": "Lower Kelani floodplain locality", "source": "Survey Department Kelani River Basin Flood Impact Analysis (2025)", "coord_basi": "Named exposed DSD/locality; representative centre point", "ev_grade": "A", "point_type": "Representative locality point", "exact_coor": "No" }, "geometry": { "type": "Point", "coordinates": [ 79.989, 6.949 ] } },
{ "type": "Feature", "properties": { "id": 8, "location": "Dompe", "district": "Gampaha", "severity": "High", "context": "Kelani basin floodplain locality", "source": "Survey Department Kelani River Basin Flood Impact Analysis (2025)", "coord_basi": "Named exposed DSD/locality; representative centre point", "ev_grade": "A", "point_type": "Representative locality point", "exact_coor": "No" }, "geometry": { "type": "Point", "coordinates": [ 80.055, 6.95 ] } },
{ "type": "Feature", "properties": { "id": 9, "location": "Seethawaka / Avissawella", "district": "Colombo", "severity": "High", "context": "Upper-lower Kelani transition locality", "source": "Survey Department Kelani River Basin Flood Impact Analysis (2025)", "coord_basi": "Named exposed DSD/locality; representative Avissawella point", "ev_grade": "A", "point_type": "Representative locality point", "exact_coor": "No" }, "geometry": { "type": "Point", "coordinates": [ 80.2114, 6.9553 ] } },
{ "type": "Feature", "properties": { "id": 10, "location": "Wattala", "district": "Gampaha", "severity": "High", "context": "Low-lying urban flood locality", "source": "DMC Flood Hazard Map: Kelani & Attanagalu Oya basins", "coord_basi": "Representative town-centre point within mapped hazard area", "ev_grade": "B", "point_type": "Representative locality point", "exact_coor": "No" }, "geometry": { "type": "Point", "coordinates": [ 79.8917, 6.9897 ] } },
{ "type": "Feature", "properties": { "id": 11, "location": "Ja-Ela", "district": "Gampaha", "severity": "Moderate", "context": "Attanagalu Oya / low-lying urban locality", "source": "DMC Flood Hazard Map: Kelani & Attanagalu Oya basins", "coord_basi": "Representative town-centre point within mapped hazard basin", "ev_grade": "B", "point_type": "Representative locality point", "exact_coor": "No" }, "geometry": { "type": "Point", "coordinates": [ 79.8919, 7.0744 ] } },
{ "type": "Feature", "properties": { "id": 12, "location": "Gampaha", "district": "Gampaha", "severity": "High", "context": "Documented district flood-affected locality", "source": "DMC Situation Report 28 May 2018; Survey Department Flood Map 2016 - Gampaha Area", "coord_basi": "Representative town-centre point; 2018 report notes low-lying areas and submerged Gampaha-Ganemulla road", "ev_grade": "A", "point_type": "Representative locality point", "exact_coor": "No" }, "geometry": { "type": "Point", "coordinates": [ 79.999, 7.0873 ] } },
{ "type": "Feature", "properties": { "id": 13, "location": "Ganemulla", "district": "Gampaha", "severity": "High", "context": "Documented road-submergence locality", "source": "DMC Situation Report 28 May 2018", "coord_basi": "Representative town-centre point near documented Gampaha-Ganemulla submerged road", "ev_grade": "A", "point_type": "Representative locality point", "exact_coor": "No" }, "geometry": { "type": "Point", "coordinates": [ 79.963, 7.064 ] } },
{ "type": "Feature", "properties": { "id": 14, "location": "Negombo", "district": "Gampaha", "severity": "Moderate", "context": "Coastal low-lying urban locality", "source": "DMC Flood Inundation Mapping - Gampaha District (2018)", "coord_basi": "Representative city-centre point within district inundation mapping coverage", "ev_grade": "B", "point_type": "Representative locality point", "exact_coor": "No" }, "geometry": { "type": "Point", "coordinates": [ 79.8358, 7.2083 ] } },
{ "type": "Feature", "properties": { "id": 15, "location": "Wellampitiya", "district": "Colombo", "severity": "High", "context": "Lower Kelani urban floodplain locality", "source": "DMC Flood Hazard Map; DMC Colombo District inundation mapping (2018)", "coord_basi": "Representative locality point within mapped flood-prone area", "ev_grade": "B", "point_type": "Representative locality point", "exact_coor": "No" }, "geometry": { "type": "Point", "coordinates": [ 79.8982, 6.9395 ] } },
{ "type": "Feature", "properties": { "id": 16, "location": "Orugodawatta", "district": "Colombo", "severity": "High", "context": "Lower Kelani urban floodplain locality", "source": "DMC Flood Hazard Map; DMC Colombo District inundation mapping (2018)", "coord_basi": "Representative locality point within mapped flood-prone area", "ev_grade": "B", "point_type": "Representative locality point", "exact_coor": "No" }, "geometry": { "type": "Point", "coordinates": [ 79.8798, 6.95 ] } },
{ "type": "Feature", "properties": { "id": 17, "location": "Sedawatta", "district": "Colombo", "severity": "High", "context": "Lower Kelani urban floodplain locality", "source": "DMC Flood Hazard Map; DMC Colombo District inundation mapping (2018)", "coord_basi": "Representative locality point within mapped flood-prone area", "ev_grade": "B", "point_type": "Representative locality point", "exact_coor": "No" }, "geometry": { "type": "Point", "coordinates": [ 79.8885, 6.957 ] } },
{ "type": "Feature", "properties": { "id": 18, "location": "Grandpass", "district": "Colombo", "severity": "High", "context": "Lower Kelani urban floodplain locality", "source": "DMC Flood Hazard Map; DMC Colombo District inundation mapping (2018)", "coord_basi": "Representative locality point within mapped flood-prone area", "ev_grade": "B", "point_type": "Representative locality point", "exact_coor": "No" }, "geometry": { "type": "Point", "coordinates": [ 79.8742, 6.9477 ] } },
{ "type": "Feature", "properties": { "id": 19, "location": "Kalutara Town", "district": "Kalutara", "severity": "High", "context": "Kalu River/coastal flood locality", "source": "DMC Flood Inundation Mapping - Kalutara District (24 May 2018); DMC 2021 Situation Summary", "coord_basi": "Representative town-centre point within officially mapped/reported affected district", "ev_grade": "B", "point_type": "Representative locality point", "exact_coor": "No" }, "geometry": { "type": "Point", "coordinates": [ 79.9607, 6.5854 ] } },
{ "type": "Feature", "properties": { "id": 20, "location": "Panadura", "district": "Kalutara", "severity": "Moderate", "context": "Coastal urban waterlogging locality", "source": "DMC Flood Inundation Mapping - Kalutara District (2018)", "coord_basi": "Representative town-centre point within district mapping coverage", "ev_grade": "C", "point_type": "Representative locality point", "exact_coor": "No" }, "geometry": { "type": "Point", "coordinates": [ 79.9026, 6.7132 ] } },
{ "type": "Feature", "properties": { "id": 21, "location": "Horana", "district": "Kalutara", "severity": "Moderate", "context": "Inland urban flood locality", "source": "DMC Flood Inundation Mapping - Kalutara District (2018)", "coord_basi": "Representative town-centre point within district mapping coverage", "ev_grade": "C", "point_type": "Representative locality point", "exact_coor": "No" }, "geometry": { "type": "Point", "coordinates": [ 80.0626, 6.7159 ] } },
{ "type": "Feature", "properties": { "id": 22, "location": "Bulathsinhala", "district": "Kalutara", "severity": "High", "context": "Kalu basin flood locality", "source": "DMC Flood Inundation Mapping - Kalutara District (2018); DMC 2021 Situation Summary", "coord_basi": "Representative town-centre point within officially affected district", "ev_grade": "B", "point_type": "Representative locality point", "exact_coor": "No" }, "geometry": { "type": "Point", "coordinates": [ 80.1758, 6.6463 ] } },
{ "type": "Feature", "properties": { "id": 23, "location": "Millaniya", "district": "Kalutara", "severity": "Moderate", "context": "Low-lying inland flood locality", "source": "DMC Flood Inundation Mapping - Kalutara District (2018)", "coord_basi": "Representative locality point within district mapping coverage", "ev_grade": "C", "point_type": "Representative locality point", "exact_coor": "No" }, "geometry": { "type": "Point", "coordinates": [ 80.017, 6.6869 ] } },
{ "type": "Feature", "properties": { "id": 24, "location": "Bandaragama", "district": "Kalutara", "severity": "Moderate", "context": "Low-lying urban flood locality", "source": "DMC Flood Inundation Mapping - Kalutara District (2018)", "coord_basi": "Representative town-centre point within district mapping coverage", "ev_grade": "C", "point_type": "Representative locality point", "exact_coor": "No" }, "geometry": { "type": "Point", "coordinates": [ 79.987, 6.71 ] } }
]
}
